FLOCK 4Q-7              
1 58318U 23174BQ  26063.19274617  .00048940  00000+0  90784-3 0  9991
2 58318  97.3944 151.6404 0008087 156.5642 203.5978 15.48776840129462
FLOCK 4Q-15             
1 58319U 23174BR  26063.19537836  .00158092  00000+0  20137-2 0  9991
2 58319  97.3920 153.8583 0005086 168.3255 191.8120 15.58782342129616
FLOCK 4Q-2              
1 58320U 23174BS  26063.62399429  .00032027  00000+0  68557-3 0  9993
2 58320  97.3874 149.9466 0008024 154.4041 205.7607 15.44698412129430
FLOCK 4Q-9              
1 58322U 23174BU  26063.18826451  .00037584  00000+0  81396-3 0  9995
2 58322  97.3912 149.5477 0008024 156.6077 203.5538 15.44319980129356
FLOCK 4Q-4              
1 58327U 23174BZ  26063.18847949  .00036078  00000+0  79133-3 0  9998
2 58327  97.3867 148.9274 0007475 174.0440 186.0899 15.43956065129338
FLOCK 4Q-13             
1 58328U 23174CA  26063.23232832  .00044824  00000+0  89734-3 0  9990
2 58328  97.4029 151.3570 0007514 168.7674 191.3745 15.46596954129429
FLOCK 4Q-21             
1 58329U 23174CB  26063.24176274  .00070717  00000+0  98173-3 0  9996
2 58329  97.3944 154.3687 0005851 174.6962 185.4356 15.56778475129642
FLOCK 4BE-18            
1 60480U 24149N   26063.21282579  .00030366  00000+0  81195-3 0  9995
2 60480  97.3786 146.1122 0003064 266.7483  93.3412 15.38010814 86159
FLOCK 4BE-7             
1 60481U 24149P   26063.22018697  .00024673  00000+0  70355-3 0  9995
2 60481  97.3818 145.7212 0002029 256.9895 103.1122 15.36053242 86113
FLOCK 4BE-26            
1 60484U 24149S   26063.18132475  .00129968  00000+0  28980-2 0  9993
2 60484  97.3773 145.9586 0005919 255.9582 104.1008 15.43066089 86143
FLOCK 4BE-36            
1 60486U 24149U   26063.17996232  .00032205  00000+0  83725-3 0  9999
2 60486  97.3795 146.6172 0002804 280.0207  80.0722 15.38866949 86187
FLOCK 4BE-25            
1 60487U 24149V   26063.16796001  .00023594  00000+0  67879-3 0  9994
2 60487  97.3853 145.8175 0001237 244.2774 115.8342 15.35785137 86100
FLOCK 4BE-31            
1 60488U 24149W   26063.47669657  .00035339  00000+0  89458-3 0  9992
2 60488  97.3849 147.5286 0001703 271.1243  88.9808 15.39666763 86245
FLOCK 4BE-20            
1 60489U 24149X   26063.20876042  .00022075  00000+0  64989-3 0  9997
2 60489  97.3760 145.0005 0002436 271.4243  88.6721 15.35071237 86093
FLOCK 4BE-23            
1 60490U 24149Y   26063.63058546  .00020707  00000+0  61656-3 0  9995
2 60490  97.3837 145.7416 0002064 281.5670  78.5341 15.34727117 86142
FLOCK 4BE-15            
1 60491U 24149Z   26063.18656732  .00110485  00000+0  27919-2 0  9993
2 60491  97.3776 146.3134 0002889 327.6143  32.4925 15.39370368 86178
